NORAD_CAT_ID,OBJECT_NAME,OBJECT_TYPE,EPOCH,MEAN_MOTION,ECCENTRICITY,INCLINATION,RA_OF_ASC_NODE,ARG_OF_PERICENTER,MEAN_ANOMALY,BSTAR,MEAN_MOTION_DOT,MEAN_MOTION_DDOT,TLE_LINE0,TLE_LINE1,TLE_LINE2,SEMIMAJOR_AXIS,PERIOD,APOGEE,PERIGEE,DECAYED
55915.0,STARLINK-5859,PAYLOAD,2024-02-21 08:43:11,14.98333238,0.0002791,70.001,28.7824,263.1798,96.9043,1.3835e-05,7.2e-07,0.0,0 STARLINK-5859,1 55915U 23037B   24052.36333262  .00000072  00000-0  13835-4 0  9994,2 55915  70.0010  28.7824 0002791 263.1798  96.9043 14.98333238 52238,6950.183,96.107,573.988,570.108,0.0
55915.0,STARLINK-5859,PAYLOAD,2024-02-21 23:08:25,14.98314108,0.0002809,70.0011,27.2676,265.9999,94.0839,0.00023836,2.751e-05,0.0,0 STARLINK-5859,1 55915U 23037B   24052.96417843  .00002751  00000-0  23836-3 0  9995,2 55915  70.0011  27.2676 0002809 265.9999  94.0839 14.98314108 52328,6950.242,96.108,574.059,570.155,0.0
55915.0,STARLINK-5859,PAYLOAD,2024-02-22 03:56:48,14.98327004,0.0002761,70.0014,26.7632,265.91,94.1743,5.4989e-05,5.63e-06,0.0,0 STARLINK-5859,1 55915U 23037B   24053.16445557  .00000563  00000-0  54989-4 0  9994,2 55915  70.0014  26.7632 0002761 265.9100  94.1743 14.98327004 52007,6950.202,96.107,573.986,570.148,0.0
55915.0,STARLINK-5859,PAYLOAD,2024-02-22 08:45:13,14.98327572,0.0002552,70.0015,26.2584,259.8223,100.2648,7.5632e-05,8.1e-06,0.0,0 STARLINK-5859,1 55915U 23037B   24053.36473493  .00000810  00000-0  75632-4 0  9999,2 55915  70.0015  26.2584 0002552 259.8223 100.2648 14.98327572 52389,6950.2,96.107,573.839,570.292,0.0
55915.0,STARLINK-5859,PAYLOAD,2024-02-22 15:09:45,14.98347161,0.0002693,70.0017,25.5823,273.8602,86.2249,-0.00032174,-3.931e-05,0.0,0 STARLINK-5859,1 55915U 23037B   24053.63177141 -.00003931  00000-0 -32174-3 0  9992,2 55915  70.0017  25.5823 0002693 273.8602  86.2249 14.98347161 52074,6950.14,96.106,573.876,570.133,0.0
55915.0,STARLINK-5859,PAYLOAD,2024-02-23 03:58:49,14.98329411,0.0002853,70.0007,24.2358,268.1915,91.8918,9.5867e-06,2.1e-07,0.0,0 STARLINK-5859,1 55915U 23037B   24054.16585450  .00000021  00000-0  95867-5 0  9992,2 55915  70.0007  24.2358 0002853 268.1915  91.8918 14.98329411 52156,6950.195,96.107,574.043,570.077,0.0
55915.0,STARLINK-5859,PAYLOAD,2024-02-23 07:11:05,14.98331876,0.0002923,70.001,23.8991,272.0253,88.0571,5.5038e-05,5.64e-06,0.0,0 STARLINK-5859,1 55915U 23037B   24054.29937156  .00000564  00000-0  55038-4 0  9997,2 55915  70.0010  23.8991 0002923 272.0253  88.0571 14.98331876 52527,6950.187,96.107,574.084,570.021,0.0
55915.0,STARLINK-5859,PAYLOAD,2024-02-23 15:11:45,14.98356958,0.0002657,70.0021,23.0579,278.0298,82.0559,-0.00047316,-5.738e-05,0.0,0 STARLINK-5859,1 55915U 23037B   24054.63316767 -.00005738  00000-0 -47316-3 0  9993,2 55915  70.0021  23.0579 0002657 278.0298  82.0559 14.98356958 52227,6950.11,96.105,573.821,570.128,0.0
55915.0,STARLINK-5859,PAYLOAD,2024-02-23 21:36:18,14.98328536,0.000233,70.002,22.3851,265.3151,94.7742,2.1708e-05,1.66e-06,0.0,0 STARLINK-5859,1 55915U 23037B   24054.90021488  .00000166  00000-0  21708-4 0  9992,2 55915  70.0020  22.3851 0002330 265.3151  94.7742 14.98328536 52614,6950.197,96.107,573.682,570.443,0.0
55915.0,STARLINK-5859,PAYLOAD,2024-02-24 04:00:51,14.98325896,0.0002684,70.0017,21.7122,271.2506,88.8345,-2.1878e-05,-3.54e-06,0.0,0 STARLINK-5859,1 55915U 23037B   24055.16725794 -.00000354  00000-0 -21878-4 0  9991,2 55915  70.0017  21.7122 0002684 271.2506  88.8345 14.98325896 52301,6950.206,96.107,573.936,570.205,0.0
55915.0,STARLINK-5859,PAYLOAD,2024-02-24 07:13:07,14.9832621,0.0002698,70.0016,21.3754,271.6286,88.4564,-1.9038e-05,-3.2e-06,0.0,0 STARLINK-5859,1 55915U 23037B   24055.30077799 -.00000320  00000-0 -19038-4 0  9990,2 55915  70.0016  21.3754 0002698 271.6286  88.4564 14.98326210 52671,6950.205,96.107,573.945,570.194,0.0
55915.0,STARLINK-5859,PAYLOAD,2024-02-24 15:13:47,14.98328805,0.000281,70.0017,20.5347,269.7218,90.3619,-5.5566e-05,-7.56e-06,0.0,0 STARLINK-5859,1 55915U 23037B   24055.63457730 -.00000756  00000-0 -55566-4 0  9992,2 55915  70.0017  20.5347 0002810 269.7218  90.3619 14.98328805 52721,6950.197,96.107,574.015,570.109,0.0
55915.0,STARLINK-5859,PAYLOAD,2024-02-25 05:38:59,14.98330411,0.0002848,70.0015,19.0188,267.4697,92.6136,-1.8677e-06,-1.15e-06,0.0,0 STARLINK-5859,1 55915U 23037B   24056.23541474 -.00000115  00000-0 -18677-5 0  9990,2 55915  70.0015  19.0188 0002848 267.4697  92.6136 14.98330411 52468,6950.192,96.107,574.036,570.077,0.0
55915.0,STARLINK-5859,PAYLOAD,2024-02-25 07:15:07,14.9833349,0.0002824,70.0017,18.8504,266.5958,93.4878,2.1401e-05,1.62e-06,0.0,0 STARLINK-5859,1 55915U 23037B   24056.30217220  .00000162  00000-0  21401-4 0  9995,2 55915  70.0017  18.8504 0002824 266.5958  93.4878 14.98333490 52825,6950.182,96.107,574.01,570.084,0.0
55915.0,STARLINK-5859,PAYLOAD,2024-02-25 23:16:28,14.98322408,0.0002916,70.0017,17.1671,270.0317,90.0508,0.000229,2.64e-05,0.0,0 STARLINK-5859,1 55915U 23037B   24056.96977274  .00002640  00000-0  22900-3 0  9996,2 55915  70.0017  17.1671 0002916 270.0317  90.0508 14.98322408 52924,6950.216,96.107,574.108,570.055,0.0
55915.0,STARLINK-5859,PAYLOAD,2024-02-26 04:04:52,14.98334409,0.0002904,70.0016,16.6627,270.7839,89.2987,8.3311e-05,9.01e-06,0.0,0 STARLINK-5859,1 55915U 23037B   24057.17004802  .00000901  00000-0  83311-4 0  9990,2 55915  70.0016  16.6627 0002904 270.7839  89.2987 14.98334409 52601,6950.179,96.107,574.063,570.026,0.0
55915.0,STARLINK-5859,PAYLOAD,2024-02-26 07:17:08,14.98336827,0.0002843,70.0016,16.3257,269.5479,90.5354,0.00011683,1.302e-05,0.0,0 STARLINK-5859,1 55915U 23037B   24057.30356591  .00001302  00000-0  11683-3 0  9998,2 55915  70.0016  16.3257 0002843 269.5479  90.5354 14.98336827 52974,6950.172,96.107,574.013,570.061,0.0
55915.0,STARLINK-5859,PAYLOAD,2024-02-26 21:42:21,14.98327954,0.000282,70.0024,14.8125,268.6407,91.4429,1.6695e-05,1.06e-06,0.0,0 STARLINK-5859,1 55915U 23037B   24057.90441328  .00000106  00000-0  16695-4 0  9997,2 55915  70.0024  14.8125 0002820 268.6407  91.4429 14.98327954 53061,6950.199,96.107,574.024,570.104,0.0
55915.0,STARLINK-5859,PAYLOAD,2024-02-27 04:06:53,14.9832765,0.0002691,70.0021,14.1393,266.7488,93.3363,-7.3077e-05,-9.65e-06,0.0,0 STARLINK-5859,1 55915U 23037B   24058.17145630 -.00000965  00000-0 -73077-4 0  9996,2 55915  70.0021  14.1393 0002691 266.7488  93.3363 14.98327650 52758,6950.2,96.107,573.935,570.195,0.0
55915.0,STARLINK-5859,PAYLOAD,2024-02-27 13:43:41,14.98332547,0.0002925,70.0016,13.1276,271.9845,88.0979,-3.6046e-05,-5.23e-06,0.0,0 STARLINK-5859,1 55915U 23037B   24058.57201222 -.00000523  00000-0 -36046-4 0  9995,2 55915  70.0016  13.1276 0002925 271.9845  88.0979 14.98332547 53167,6950.185,96.107,574.083,570.017,0.0
55915.0,STARLINK-5859,PAYLOAD,2024-02-27 21:44:22,14.98333139,0.0002923,70.0012,12.2863,270.7501,89.3324,-3.1349e-05,-4.67e-06,0.0,0 STARLINK-5859,1 55915U 23037B   24058.90581119 -.00000467  00000-0 -31349-4 0  9996,2 55915  70.0012  12.2863 0002923 270.7501  89.3324 14.98333139 53211,6950.183,96.107,574.08,570.017,0.0
55915.0,STARLINK-5859,PAYLOAD,2024-02-28 04:08:54,14.98336725,0.0002892,70.0013,11.6133,270.2763,89.8064,9.0342e-07,-8.2e-07,0.0,0 STARLINK-5859,1 55915U 23037B   24059.17284727 -.00000082  00000-0  90342-6 0  9993,2 55915  70.0013  11.6133 0002892 270.2763  89.8064 14.98336725 52900,6950.172,96.107,574.047,570.027,0.0
55915.0,STARLINK-5859,PAYLOAD,2024-02-28 13:45:42,14.98339036,0.0002793,70.0015,10.6027,273.6343,86.4496,-9.1023e-05,-1.179e-05,0.0,0 STARLINK-5859,1 55915U 23037B   24059.57340634 -.00001179  00000-0 -91023-4 0  9991,2 55915  70.0015  10.6027 0002793 273.6343  86.4496 14.98339036 53310,6950.165,96.106,573.971,570.089,0.0
55915.0,STARLINK-5859,PAYLOAD,2024-02-28 20:10:15,14.98322675,0.0002768,70.002,9.9299,274.6701,85.4142,4.0777e-05,3.94e-06,0.0,0 STARLINK-5859,1 55915U 23037B   24059.84045347  .00000394  00000-0  40777-4 0  9990,2 55915  70.0020   9.9299 0002768 274.6701  85.4142 14.98322675 53003,6950.216,96.107,574.004,570.157,0.0
55915.0,STARLINK-5859,PAYLOAD,2024-02-28 21:46:23,14.98326679,0.0002558,70.0021,9.7636,264.9522,95.1345,4.2055e-05,4.09e-06,0.0,0 STARLINK-5859,1 55915U 23037B   24059.90721127  .00000409  00000-0  42055-4 0  9992,2 55915  70.0021   9.7636 0002558 264.9522  95.1345 14.98326679 53367,6950.203,96.107,573.846,570.29,0.0
55915.0,STARLINK-5859,PAYLOAD,2024-02-29 13:47:44,14.9831866,0.0002553,70.0025,8.0774,276.4699,83.617,0.00010334,1.14e-05,0.0,0 STARLINK-5859,1 55915U 23037B   24060.57481744  .00001140  00000-0  10334-3 0  9992,2 55915  70.0025   8.0774 0002553 276.4699  83.6170 14.98318660 53464,6950.228,96.108,573.867,570.319,0.0
55915.0,STARLINK-5859,PAYLOAD,2024-02-29 20:12:16,14.98326174,0.0002825,70.0017,7.4056,270.9046,89.1789,-6.7525e-05,-8.98e-06,0.0,0 STARLINK-5859,1 55915U 23037B   24060.84185611 -.00000898  00000-0 -67525-4 0  9992,2 55915  70.0017   7.4056 0002825 270.9046  89.1789 14.98326174 53150,6950.205,96.107,574.033,570.106,0.0
55915.0,STARLINK-5859,PAYLOAD,2024-02-29 21:48:24,14.98327836,0.0002847,70.0017,7.2372,271.0148,89.0685,-4.6126e-05,-6.43e-06,0.0,0 STARLINK-5859,1 55915U 23037B   24060.90861433 -.00000643  00000-0 -46126-4 0  9994,2 55915  70.0017   7.2372 0002847 271.0148  89.0685 14.98327836 53518,6950.2,96.107,574.043,570.086,0.0
55915.0,STARLINK-5859,PAYLOAD,2024-03-01 13:49:44,14.98334797,0.0003005,70.0012,5.5532,271.2409,88.8406,-5.6174e-05,-7.63e-06,0.0,0 STARLINK-5859,1 55915U 23037B   24061.57620950 -.00000763  00000-0 -56174-4 0  9992,2 55915  70.0012   5.5532 0003005 271.2409  88.8406 14.98334797 53614,6950.178,96.107,574.132,569.955,0.0
55915.0,STARLINK-5859,PAYLOAD,2024-03-01 21:50:24,14.98319968,0.0002989,70.0012,4.7117,270.3,89.7817,0.00022881,2.637e-05,0.0,0 STARLINK-5859,1 55915U 23037B   24061.91001137  .00002637  00000-0  22881-3 0  9997,2 55915  70.0012   4.7117 0002989 270.3000  89.7817 14.98319968 53665,6950.224,96.108,574.166,570.011,0.0
